AL MUNTHER              
1 63240U 25052AG  26068.64540749  .00017933  00000+0  65015-3 0  9992
2 63240  97.4001 323.9152 0008027 130.7043 229.4895 15.28381521 54798
STARLINK-35910          
1 67184U 25303X   26068.06052621  .00039330  00000+0  14301-2 0  9991
2 67184  42.9961 313.8596 0000184  24.3355 335.7505 15.27604781 12641
